{
    "links": {
        "self": "http://www.neowsapp.com/rest/v1/neo/3578827?api_key=iIulBulltgU6a56xZRHN4H3l9WmuAYTsLGpBGhQ2"
    },
    "id": "3578827",
    "neo_reference_id": "3578827",
    "name": "(2011 SF16)",
    "designation": "2011 SF16",
    "nasa_jpl_url": "http://ssd.jpl.nasa.gov/sbdb.cgi?sstr=3578827",
    "absolute_magnitude_h": 24.5,
    "estimated_diameter": {
        "kilometers": {
            "estimated_diameter_min": 0.0334622374,
            "estimated_diameter_max": 0.0748238376
        },
        "meters": {
            "estimated_diameter_min": 33.4622374455,
            "estimated_diameter_max": 74.8238376074
        },
        "miles": {
            "estimated_diameter_min": 0.0207924639,
            "estimated_diameter_max": 0.0464933628
        },
        "feet": {
            "estimated_diameter_min": 109.7842471007,
            "estimated_diameter_max": 245.4850393757
        }
    },
    "is_potentially_hazardous_asteroid": false,
    "close_approach_data": [
        {
            "close_approach_date": "2011-09-12",
            "close_approach_date_full": "2011-Sep-12 10:19",
            "epoch_date_close_approach": 1315822740000,
            "relative_velocity": {
                "kilometers_per_second": "6.8160316424",
                "kilometers_per_hour": "24537.7139125867",
                "miles_per_hour": "15246.7811808514"
            },
            "miss_distance": {
                "astronomical": "0.113423302",
                "lunar": "44.121664478",
                "kilometers": "16967884.38756674",
                "miles": "10543354.456591412"
            },
            "orbiting_body": "Earth"
        }
    ],
    "orbital_data": {
        "orbit_id": "6",
        "orbit_determination_date": "2017-04-06 08:52:49",
        "first_observation_date": "2011-09-20",
        "last_observation_date": "2011-10-04",
        "data_arc_in_days": 14,
        "observations_used": 13,
        "orbit_uncertainty": "8",
        "minimum_orbit_intersection": ".102636",
        "jupiter_tisserand_invariant": "3.485",
        "epoch_osculation": "2455825.5",
        "eccentricity": ".4956008990924429",
        "semi_major_axis": "2.200747683060658",
        "inclination": "7.338722523553322",
        "ascending_node_longitude": "347.6183879487014",
        "orbital_period": "1192.487421722548",
        "perihelion_distance": "1.110055152660185",
        "perihelion_argument": "357.3681745361099",
        "aphelion_distance": "3.29144021346113",
        "perihelion_time": "2455815.303367052210",
        "mean_anomaly": "3.078261283378526",
        "mean_motion": ".3018899767344968",
        "equinox": "J2000",
        "orbit_class": {
            "orbit_class_type": "AMO",
            "orbit_class_description": "Near-Earth asteroid orbits similar to that of 1221 Amor",
            "orbit_class_range": "1.017 AU < q (perihelion) < 1.3 AU"
        }
    },
    "is_sentry_object": false
}